{
  "type": "FeatureCollection",
  "features": [
    {
      "type": "Feature",
      "properties": {
        "norad_id": 34022,
        "name": "COSMOS 2251 DEB",
        "group": "cosmos-2251-debris",
        "lat": -40.6971022636147,
        "lon": 105.63891081263797,
        "alt_km": 774.6145100776539,
        "timestamp": "2025-12-12T09:49:09.125438+00:00",
        "meta_object_name": "COSMOS 2251 DEB",
        "meta_object_id": "1993-036HH",
        "meta_epoch": "2025-12-11T21:26:08.839104",
        "meta_mean_motion": 14.389616,
        "meta_eccentricity": 0.0022689,
        "meta_inclination": 74.0542,
        "meta_ra_of_asc_node": 272.3546,
        "meta_arg_of_pericenter": 337.465,
        "meta_mean_anomaly": 93.5745,
        "meta_ephemeris_type": 0,
        "meta_classification_type": "U",
        "meta_norad_cat_id": 34022,
        "meta_element_set_no": 999,
        "meta_rev_at_epoch": 88183,
        "meta_bstar": 0.00039018,
        "meta_mean_motion_dot": 1.181e-05,
        "meta_mean_motion_ddot": 0,
        "tle_line1": "1 34022U 93036HH  25345.89315786  .00001181  00000+0  39018-3 0  9992",
        "tle_line2": "2 34022  74.0542 272.3546 0022689 337.4650  93.5745 14.38961600881838"
      },
      "geometry": {
        "type": "Point",
        "coordinates": [
          105.63891081263797,
          -40.6971022636147
        ]
      }
    },
    {
      "type": "Feature",
      "properties": {
        "norad_id": 34023,
        "name": "COSMOS 2251 DEB",
        "group": "cosmos-2251-debris",
        "lat": 37.662642865259926,
        "lon": 59.58147815487468,
        "alt_km": 765.1981860431897,
        "timestamp": "2025-12-12T09:49:09.125449+00:00",
        "meta_object_name": "COSMOS 2251 DEB",
        "meta_object_id": "1993-036HJ",
        "meta_epoch": "2025-12-11T21:52:08.480064",
        "meta_mean_motion": 14.40558554,
        "meta_eccentricity": 0.0018444,
        "meta_inclination": 74.0251,
        "meta_ra_of_asc_node": 253.2763,
        "meta_arg_of_pericenter": 349.1276,
        "meta_mean_anomaly": 90.0279,
        "meta_ephemeris_type": 0,
        "meta_classification_type": "U",
        "meta_norad_cat_id": 34023,
        "meta_element_set_no": 999,
        "meta_rev_at_epoch": 88202,
        "meta_bstar": 0.0005303,
        "meta_mean_motion_dot": 1.666e-05,
        "meta_mean_motion_ddot": 0,
        "tle_line1": "1 34023U 93036HJ  25345.91120926  .00001666  00000+0  53030-3 0  9994",
        "tle_line2": "2 34023  74.0251 253.2763 0018444 349.1276  90.0279 14.40558554882022"
      },
      "geometry": {
        "type": "Point",
        "coordinates": [
          59.58147815487468,
          37.662642865259926
        ]
      }
    },
    {
      "type": "Feature",
      "properties": {
        "norad_id": 34024,
        "name": "COSMOS 2251 DEB",
        "group": "cosmos-2251-debris",
        "lat": 22.83276698321825,
        "lon": 129.6820511474005,
        "alt_km": 785.8259113296999,
        "timestamp": "2025-12-12T09:49:09.125459+00:00",
        "meta_object_name": "COSMOS 2251 DEB",
        "meta_object_id": "1993-036HK",
        "meta_epoch": "2025-12-12T04:08:19.121856",
        "meta_mean_motion": 14.35395438,
        "meta_eccentricity": 0.0021002,
        "meta_inclination": 74.0464,
        "meta_ra_of_asc_node": 317.0331,
        "meta_arg_of_pericenter": 7.8761,
        "meta_mean_anomaly": 5.5088,
        "meta_ephemeris_type": 0,
        "meta_classification_type": "U",
        "meta_norad_cat_id": 34024,
        "meta_element_set_no": 999,
        "meta_rev_at_epoch": 88016,
        "meta_bstar": 0.00031694,
        "meta_mean_motion_dot": 8.86e-06,
        "meta_mean_motion_ddot": 0,
        "tle_line1": "1 34024U 93036HK  25346.17244354  .00000886  00000+0  31694-3 0  9991",
        "tle_line2": "2 34024  74.0464 317.0331 0021002   7.8761   5.5088 14.35395438880166"
      },
      "geometry": {
        "type": "Point",
        "coordinates": [
          129.6820511474005,
          22.83276698321825
        ]
      }
    },
    {
      "type": "Feature",
      "properties": {
        "norad_id": 34026,
        "name": "COSMOS 2251 DEB",
        "group": "cosmos-2251-debris",
        "lat": 54.60322508994021,
        "lon": 133.63165366829946,
        "alt_km": 984.0548444732458,
        "timestamp": "2025-12-12T09:49:09.125469+00:00",
        "meta_object_name": "COSMOS 2251 DEB",
        "meta_object_id": "1993-036HM",
        "meta_epoch": "2025-12-12T00:42:27.527328",
        "meta_mean_motion": 13.65307375,
        "meta_eccentricity": 0.0350653,
        "meta_inclination": 73.767,
        "meta_ra_of_asc_node": 338.4667,
        "meta_arg_of_pericenter": 208.5868,
        "meta_mean_anomaly": 211.9292,
        "meta_ephemeris_type": 0,
        "meta_classification_type": "U",
        "meta_norad_cat_id": 34026,
        "meta_element_set_no": 999,
        "meta_rev_at_epoch": 83522,
        "meta_bstar": 0.0010532,
        "meta_mean_motion_dot": 1.28e-05,
        "meta_mean_motion_ddot": 0,
        "tle_line1": "1 34026U 93036HM  25346.02948527  .00001280  00000+0  10532-2 0  9996",
        "tle_line2": "2 34026  73.7670 338.4667 0350653 208.5868 211.9292 13.65307375835229"
      },
      "geometry": {
        "type": "Point",
        "coordinates": [
          133.63165366829946,
          54.60322508994021
        ]
      }
    },
    {
      "type": "Feature",
      "properties": {
        "norad_id": 34028,
        "name": "COSMOS 2251 DEB",
        "group": "cosmos-2251-debris",
        "lat": -20.266002329691503,
        "lon": 173.88550546403044,
        "alt_km": 1062.5447261510008,
        "timestamp": "2025-12-12T09:49:09.125481+00:00",
        "meta_object_name": "COSMOS 2251 DEB",
        "meta_object_id": "1993-036HP",
        "meta_epoch": "2025-12-12T01:52:50.844000",
        "meta_mean_motion": 13.2062192,
        "meta_eccentricity": 0.054372,
        "meta_inclination": 73.8832,
        "meta_ra_of_asc_node": 348.2642,
        "meta_arg_of_pericenter": 126.2235,
        "meta_mean_anomaly": 296.8575,
        "meta_ephemeris_type": 0,
        "meta_classification_type": "U",
        "meta_norad_cat_id": 34028,
        "meta_element_set_no": 999,
        "meta_rev_at_epoch": 80999,
        "meta_bstar": 0.00048546,
        "meta_mean_motion_dot": 4.12e-06,
        "meta_mean_motion_ddot": 0,
        "tle_line1": "1 34028U 93036HP  25346.07836625  .00000412  00000+0  48546-3 0  9991",
        "tle_line2": "2 34028  73.8832 348.2642 0543720 126.2235 296.8575 13.20621920809994"
      },
      "geometry": {
        "type": "Point",
        "coordinates": [
          173.88550546403044,
          -20.266002329691503
        ]
      }
    },
    {
      "type": "Feature",
      "properties": {
        "norad_id": 34031,
        "name": "COSMOS 2251 DEB",
        "group": "cosmos-2251-debris",
        "lat": -43.63819052301745,
        "lon": 120.47361107656734,
        "alt_km": 691.7912116704329,
        "timestamp": "2025-12-12T09:49:09.125492+00:00",
        "meta_object_name": "COSMOS 2251 DEB",
        "meta_object_id": "1993-036HS",
        "meta_epoch": "2025-12-11T21:36:43.135200",
        "meta_mean_motion": 14.59670256,
        "meta_eccentricity": 0.0022997,
        "meta_inclination": 74.0124,
        "meta_ra_of_asc_node": 137.3105,
        "meta_arg_of_pericenter": 257.6778,
        "meta_mean_anomaly": 264.6151,
        "meta_ephemeris_type": 0,
        "meta_classification_type": "U",
        "meta_norad_cat_id": 34031,
        "meta_element_set_no": 999,
        "meta_rev_at_epoch": 88553,
        "meta_bstar": 0.0021318,
        "meta_mean_motion_dot": 0.0001018,
        "meta_mean_motion_ddot": 0,
        "tle_line1": "1 34031U 93036HS  25345.90049925  .00010180  00000+0  21318-2 0  9995",
        "tle_line2": "2 34031  74.0124 137.3105 0022997 257.6778 264.6151 14.59670256885531"
      },
      "geometry": {
        "type": "Point",
        "coordinates": [
          120.47361107656734,
          -43.63819052301745
        ]
      }
    },
    {
      "type": "Feature",
      "properties": {
        "norad_id": 34035,
        "name": "COSMOS 2251 DEB",
        "group": "cosmos-2251-debris",
        "lat": 50.454430565778814,
        "lon": 149.51840088331124,
        "alt_km": 736.833220773492,
        "timestamp": "2025-12-12T09:49:09.125502+00:00",
        "meta_object_name": "COSMOS 2251 DEB",
        "meta_object_id": "1993-036HW",
        "meta_epoch": "2025-12-12T03:09:11.695968",
        "meta_mean_motion": 14.51928627,
        "meta_eccentricity": 0.0044669,
        "meta_inclination": 74.0661,
        "meta_ra_of_asc_node": 350.2834,
        "meta_arg_of_pericenter": 351.8965,
        "meta_mean_anomaly": 123.1783,
        "meta_ephemeris_type": 0,
        "meta_classification_type": "U",
        "meta_norad_cat_id": 34035,
        "meta_element_set_no": 999,
        "meta_rev_at_epoch": 87957,
        "meta_bstar": 0.002503,
        "meta_mean_motion_dot": 0.00010215,
        "meta_mean_motion_ddot": 0,
        "tle_line1": "1 34035U 93036HW  25346.13138537  .00010215  00000+0  25030-2 0  9997",
        "tle_line2": "2 34035  74.0661 350.2834 0044669 351.8965 123.1783 14.51928627879578"
      },
      "geometry": {
        "type": "Point",
        "coordinates": [
          149.51840088331124,
          50.454430565778814
        ]
      }
    }
  ]
}